NORAD_CAT_ID,OBJECT_NAME,OBJECT_TYPE,EPOCH,MEAN_MOTION,ECCENTRICITY,INCLINATION,RA_OF_ASC_NODE,ARG_OF_PERICENTER,MEAN_ANOMALY,BSTAR,MEAN_MOTION_DOT,MEAN_MOTION_DDOT,TLE_LINE0,TLE_LINE1,TLE_LINE2,SEMIMAJOR_AXIS,PERIOD,APOGEE,PERIGEE,DECAYED
53908.0,STARLINK-5057,PAYLOAD,2022-11-16 14:00:01,15.73156619,0.0004032,53.2168,352.576,7.7343,287.9181,0.00052989,0.00074292,0.0,0 STARLINK-5057,1 53908U 22119Y   22320.58335648  .00074292  00000-0  52989-3 0  9991,2 53908  53.2168 352.5760 0004032   7.7343 287.9181 15.73156619  8719,6728.019,91.536,352.597,347.171,0.0
53908.0,STARLINK-5057,PAYLOAD,2022-11-16 22:00:08,15.73201959,0.0003831,53.2173,350.9178,7.6199,17.3417,2.8916e-05,3.437e-05,0.0,0 STARLINK-5057,1 53908U 22119Y   22320.91675926  .00003437  00000-0  28916-4 0  9991,2 53908  53.2173 350.9178 0003831   7.6199  17.3417 15.73201959  1307,6727.89,91.533,352.332,347.177,0.0
53908.0,STARLINK-5057,PAYLOAD,2022-11-17 06:00:00,15.73227275,0.0004106,53.2163,349.2997,6.6553,106.8327,-0.00044374,-0.00062545,0.0,0 STARLINK-5057,1 53908U 22119Y   22321.25001157 -.00062545  00000-0 -44374-3 0  9990,2 53908  53.2163 349.2997 0004106   6.6553 106.8327 15.73227275  8822,6727.816999999999,91.532,352.445,346.92,0.0
53908.0,STARLINK-5057,PAYLOAD,2022-11-17 14:00:01,15.73185035,0.0004314,53.216,347.6513,5.2170000000000005,197.2005,0.00041105,0.00057448,0.0,0 STARLINK-5057,1 53908U 22119Y   22321.58334491  .00057448  00000-0  41105-3 0  9999,2 53908  53.2160 347.6513 0004314   5.2170 197.2005 15.73185035  1306,6727.938,91.534,352.705,346.9,0.0
53908.0,STARLINK-5057,PAYLOAD,2022-11-17 22:00:00,15.73186053,0.000411,53.2161,345.9998,4.578,286.7916,0.00023418,0.00032362,0.0,0 STARLINK-5057,1 53908U 22119Y   22321.91667824  .00032362  00000-0  23418-3 0  9990,2 53908  53.2161 345.9998 0004110   4.5780 286.7916 15.73186053  1304,6727.935,91.534,352.565,347.035,0.0
53908.0,STARLINK-5057,PAYLOAD,2022-11-18 06:00:00,15.73224454,0.0004203,53.2159,344.3515,3.4793,16.8127,-0.00051846,-0.00072878,0.0,0 STARLINK-5057,1 53908U 22119Y   22322.25001157 -.00072878  00000-0 -51846-3 0  9993,2 53908  53.2159 344.3515 0004203   3.4793  16.8127 15.73224454  8978,6727.825,91.532,352.51800000000014,346.86300000000006,0.0
53908.0,STARLINK-5057,PAYLOAD,2022-11-18 14:00:01,15.73166309,0.0004411,53.2153,342.7029,3.3192,105.8846,0.00046005,0.00064374,0.0,0 STARLINK-5057,1 53908U 22119Y   22322.58334491  .00064374  00000-0  46005-3 0  9990,2 53908  53.2153 342.7029 0004411   3.3192 105.8846 15.73166309  1308,6727.991,91.535,352.824,346.889,0.0
53908.0,STARLINK-5057,PAYLOAD,2022-11-18 22:00:00,15.73198011,0.0004141,53.2154,341.0514,5.0652,193.062,0.00046822,0.00065624,0.0,0 STARLINK-5057,1 53908U 22119Y   22322.91667824  .00065624  00000-0  46822-3 0  9992,2 53908  53.2154 341.0514 0004141   5.0652 193.0620 15.73198011  1304,6727.901,91.533,352.552,346.98,0.0
53908.0,STARLINK-5057,PAYLOAD,2022-11-19 14:00:01,15.73253241,0.0004428999999999,53.2153,337.7543,2.1063,13.9343,-0.00034083,-0.00048323,0.0,0 STARLINK-5057,1 53908U 22119Y   22323.58334491 -.00048323  00000-0 -34083-3 0  9992,2 53908  53.2153 337.7543 0004429   2.1063  13.9343 15.73253241  1309,6727.743,91.53,352.588,346.629,0.0
53908.0,STARLINK-5057,PAYLOAD,2022-11-19 22:00:00,15.73215957,0.0004148,53.2153,336.1027,3.8249,101.1929,-9.3075e-05,-0.00013682,0.0,0 STARLINK-5057,1 53908U 22119Y   22323.91667824 -.00013682  00000-0 -93075-4 0  9995,2 53908  53.2153 336.1027 0004148   3.8249 101.1929 15.73215957  1303,6727.85,91.532,352.505,346.9240000000001,0.0
53908.0,STARLINK-5057,PAYLOAD,2022-11-20 14:00:01,15.73206285,0.0004409,53.2143,332.8054,5.0502,277.8409,-0.00019365,-0.00027737,0.0,0 STARLINK-5057,1 53908U 22119Y   22324.58334491 -.00027737  00000-0 -19365-3 0  9995,2 53908  53.2143 332.8054 0004409   5.0502 277.8409 15.73206285  1309,6727.877,91.533,352.709,346.776,0.0
53908.0,STARLINK-5057,PAYLOAD,2022-11-20 22:00:00,15.73164859,0.0004111,53.2144,331.1539,3.8866,7.9373,3.6059e-05,4.433e-05,0.0,0 STARLINK-5057,1 53908U 22119Y   22324.91667824  .00004433  00000-0  36059-4 0  9997,2 53908  53.2144 331.1539 0004111   3.8866   7.9373 15.73164859  1301,6727.995,91.535,352.626,347.094,0.0
53908.0,STARLINK-5057,PAYLOAD,2022-11-21 08:00:01,15.73175963,0.0004395,53.2147,329.094,4.6586,208.2894,0.0003391,0.00047208,0.0,0 STARLINK-5057,1 53908U 22119Y   22325.33334491  .00047208  00000-0  33910-3 0  9994,2 53908  53.2147 329.0940 0004395   4.6586 208.2894 15.73175963  9465,6727.964,91.535,352.786,346.872,0.0
53908.0,STARLINK-5057,PAYLOAD,2022-11-21 14:00:01,15.73240406,0.0004371,53.2144,327.8566,3.672,185.9548,-0.00047467,-0.00066871,0.0,0 STARLINK-5057,1 53908U 22119Y   22325.58334491 -.00066871  00000-0 -47467-3 0  9992,2 53908  53.2144 327.8566 0004371   3.6720 185.9548 15.73240406  1302,6727.78,91.531,352.586,346.704,0.0
53908.0,STARLINK-5057,PAYLOAD,2022-11-21 22:00:00,15.73164976,0.0004108,53.2144,326.2051,3.2201,275.3637,0.00064963,0.00091442,0.0,0 STARLINK-5057,1 53908U 22119Y   22325.91667824  .00091442  00000-0  64963-3 0  9998,2 53908  53.2144 326.2051 0004108   3.2201 275.3637 15.73164976  9557,6727.995,91.535,352.624,347.096,0.0
53908.0,STARLINK-5057,PAYLOAD,2022-11-22 08:00:01,15.73189146,0.0004345,53.2141,324.1452,2.8633,116.9005,9.037e-05,0.00012076,0.0,0 STARLINK-5057,1 53908U 22119Y   22326.33334491  .00012076  00000-0  90370-4 0  9994,2 53908  53.2141 324.1452 0004345   2.8633 116.9005 15.73189146  9626,6727.926,91.534,352.714,346.86800000000005,0.0
53908.0,STARLINK-5057,PAYLOAD,2022-11-22 14:00:01,15.73212084,0.000433,53.2141,322.9072,2.5732,93.9426,0.00018214,0.00025039,0.0,0 STARLINK-5057,1 53908U 22119Y   22326.58335648  .00025039  00000-0  18214-3 0  9995,2 53908  53.2141 322.9072 0004330   2.5732  93.9426 15.73212084  1307,6727.861,91.532,352.639,346.81300000000016,0.0
53908.0,STARLINK-5057,PAYLOAD,2022-11-22 22:00:00,15.73201424,0.0004071,53.2137,321.2559,1.9287,183.4806,8.3082e-05,0.00011056,0.0,0 STARLINK-5057,1 53908U 22119Y   22326.91667824  .00011056  00000-0  83082-4 0  9996,2 53908  53.2137 321.2559 0004071   1.9287 183.4806 15.73201424  1307,6727.891,91.533,352.495,347.017,0.0
53908.0,STARLINK-5057,PAYLOAD,2022-11-23 14:00:01,15.73187493,0.0004277,53.214,317.9582,0.7969,2.4904,0.00014161,0.00019294,0.0,0 STARLINK-5057,1 53908U 22119Y   22327.58334491  .00019294  00000-0  14161-3 0  9994,2 53908  53.2140 317.9582 0004277   0.7969   2.4904 15.73187493  1309,6727.931,91.534,352.673,346.918,0.0
53908.0,STARLINK-5057,PAYLOAD,2022-11-23 16:00:00,15.73209054,0.0004184,53.2142,317.5452,1.3684,114.1427,-0.00015556,-0.00022419,0.0,0 STARLINK-5057,1 53908U 22119Y   22327.66667824 -.00022419  00000-0 -15556-3 0  9996,2 53908  53.2142 317.5452 0004184   1.3684 114.1427 15.73209054  9836,6727.869000000002,91.533,352.5490000000001,346.9190000000001,0.0
53908.0,STARLINK-5057,PAYLOAD,2022-11-23 22:00:00,15.73204155,0.000406,53.2141,316.3069,4.2361,87.9774,-0.00020713,-0.00029611,0.0,0 STARLINK-5057,1 53908U 22119Y   22327.91667824 -.00029611  00000-0 -20713-3 0  9996,2 53908  53.2141 316.3069 0004060   4.2361  87.9774 15.73204155  1306,6727.8830000000025,91.533,352.48,347.017,0.0
53908.0,STARLINK-5057,PAYLOAD,2022-11-24 14:00:01,15.73206732,0.0004229,53.214,313.0042,5.0479,265.0031,-0.00040514,-0.00057147,0.0,0 STARLINK-5057,1 53908U 22119Y   22328.58334491 -.00057147  00000-0 -40514-3 0  9997,2 53908  53.2140 313.0042 0004229   5.0479 265.0031 15.73206732  1304,6727.876,91.533,352.586,346.896,0.0
53908.0,STARLINK-5057,PAYLOAD,2022-11-24 22:00:00,15.73331463,0.000386,53.2153,311.3415,353.6211,5.3197,-0.0035173,-0.00470654,0.0,0 STARLINK-5057,1 53908U 22119Y   22328.91667824 -.00470654  00000-0 -35173-2 0  9999,2 53908  53.2153 311.3415 0003860 353.6211   5.3197 15.73331463  1307,6727.52,91.526,351.982,346.789,0.0
53908.0,STARLINK-5057,PAYLOAD,2022-11-25 08:00:01,15.73013271,0.0003567,53.2172,309.2705,307.3033,252.6784,-0.0090003999999999,-0.01120979,0.0,0 STARLINK-5057,1 53908U 22119Y   22329.33334491 -.01120979  00000-0 -90004-2 0  9994,2 53908  53.2172 309.2705 0003567 307.3033 252.6784 15.73013271 10097,6728.428000000001,91.544,352.6930000000001,347.89300000000014,0.0
53908.0,STARLINK-5057,PAYLOAD,2022-11-25 14:00:01,15.72390895,0.0004923,53.2167,308.0339,288.2261,248.0075,-0.0090814,-0.01104019,0.0,0 STARLINK-5057,1 53908U 22119Y   22329.58334491 -.01104019  00000-0 -90814-2 0  9997,2 53908  53.2167 308.0339 0004923 288.2261 248.0075 15.72390895  1303,6730.203,91.58,355.381,348.755,0.0
53908.0,STARLINK-5057,PAYLOAD,2022-11-25 22:00:00,15.71643875,0.0006772999999999,53.2169,306.388,272.5375,351.1373,-0.010221,-0.01193671,0.0,0 STARLINK-5057,1 53908U 22119Y   22329.91667824 -.01193671  00000-0 -10221-1 0  9998,2 53908  53.2169 306.3880 0006773 272.5375 351.1373 15.71643875  1309,6732.335,91.624,358.76,349.641,0.0
53908.0,STARLINK-5057,PAYLOAD,2022-11-26 06:00:00,15.70824824,0.0006186,53.2172,304.7454,270.1762,79.9924,-0.010458,-0.01200631,0.0,0 STARLINK-5057,1 53908U 22119Y   22330.25001157 -.01200631  00000-0 -10458-1 0  9995,2 53908  53.2172 304.7454 0006186 270.1762  79.9924 15.70824824 10237,6734.675,91.672,360.707,352.374,0.0
53908.0,STARLINK-5057,PAYLOAD,2022-11-26 14:00:01,15.69954391,0.0005456,53.2166,303.1008,271.1891,164.5295,-0.010172,-0.01114195,0.0,0 STARLINK-5057,1 53908U 22119Y   22330.58334491 -.01114195  00000-0 -10172-1 0  9993,2 53908  53.2166 303.1008 0005456 271.1891 164.5295 15.69954391  1302,6737.1640000000025,91.722,362.705,355.35400000000016,0.0
53908.0,STARLINK-5057,PAYLOAD,2022-11-26 22:00:00,15.69200204,0.0002368,53.2165,301.4595,288.115,232.1136,-0.011324,-0.01210652,0.0,0 STARLINK-5057,1 53908U 22119Y   22330.91667824 -.01210652  00000-0 -11324-1 0  9994,2 53908  53.2165 301.4595 0002368 288.1150 232.1136 15.69200204  1301,6739.323,91.766,362.784,359.592,0.0
